OBJECT_NAME,OBJECT_ID,EPOCH,MEAN_MOTION,ECCENTRICITY,INCLINATION,RA_OF_ASC_NODE,ARG_OF_PERICENTER,MEAN_ANOMALY,EPHEMERIS_TYPE,CLASSIFICATION_TYPE,NORAD_CAT_ID,ELEMENT_SET_NO,REV_AT_EPOCH,BSTAR,MEAN_MOTION_DOT,MEAN_MOTION_DDOT
TJS-7,2021-077A,2026-07-01T13:22:04.152864,1.00271485,.00035035,0.3198,264.5638,115.7365,0.3704,0,U,49115,999,969,0,-.113E-5,0
CHINASAT 9B,2021-080A,2026-07-01T14:30:39.981888,1.00265952,.00025427,0.0184,37.4079,84.7441,116.5592,0,U,49125,999,1779,0,0,0
SHIJIAN-21 (SJ-21),2021-094A,2026-07-01T18:38:23.529408,1.00264215,.0049727,5.1454,61.0953,168.0112,98.1403,0,U,49330,999,550,0,-.341E-5,0
SES-17,2021-095A,2026-07-01T11:59:53.916576,1.00274209,.00013575,0.0218,36.4358,69.6185,286.3807,0,U,49332,999,1799,0,-.262E-5,0
SYRACUSE 4A,2021-095B,2026-07-01T10:49:15.504960,1.00270065,.00014645,0.0259,38.5237,56.0153,32.7926,0,U,49333,999,1809,0,0,0
QZS-1R (MICHIBIKI-1R),2021-096A,2026-07-01T14:37:01.870752,1.00251244,.0756025,37.4893,79.3703,272.0403,280.4502,0,U,49336,999,1715,0,-.278E-5,0
ZHONGXING-1D,2021-114A,2026-07-01T07:18:38.621088,1.00270455,.00005715,0.0467,124.1238,39.3045,355.7759,0,U,49505,999,1696,0,-.326E-5,0
STPSAT-6,2021-118A,2026-07-01T13:28:03.194976,1.00270758,.00009362,0.3561,85.2771,270.2476,14.3901,0,U,49817,999,1671,0,-.35E-6,0
EXPRESS AMU-7,2021-123A,2026-07-01T06:09:47.287584,1.00272751,.0000443,0.0274,282.7758,125.5414,108.4386,0,U,50001,999,1668,0,-.232E-5,0
EXPRESS AMU-3,2021-123B,2026-06-29T22:36:26.749728,1.00278298,.00010852,0.0197,341.0992,8.1661,10.7324,0,U,50002,999,716,0,0,0
TIANLIAN 2-02,2021-124A,2026-06-30T12:47:53.744352,1.00273312,.00008034,0.8353,85.9352,182.4162,13.2038,0,U,50005,999,1675,0,-.4E-7,0
TURKSAT 5B,2021-126A,2026-07-01T14:13:47.015328,1.00271302,.00025997,0.0696,339.1112,21.8290,174.1433,0,U,50212,999,1644,0,.157E-5,0
INMARSAT 6-F1,2021-128A,2026-07-01T11:00:21.940128,1.00270069,.00002471,0.0141,318.0594,137.2501,73.0512,0,U,50319,999,1640,0,-.161E-5,0
SHIYAN-12 01 (SY-12 01),2021-129A,2026-07-01T18:40:09.968160,1.00045778,.0002967,3.7100,79.7204,294.0464,234.1643,0,U,50321,999,1664,0,.147E-5,0
SHIYAN-12 02 (SY-12 02),2021-129B,2026-07-01T17:55:40.693728,1.00484923,.000312,3.7093,79.7238,58.9175,150.3000,0,U,50322,999,1664,0,-.323E-5,0
TJS-9,2021-135A,2026-07-01T07:10:38.443584,1.00269190,.00037058,0.0168,48.1124,16.5354,99.6001,0,U,50574,999,1657,0,0,0
USA 324,2022-006A,2026-06-06T02:06:38.886912,1.00289779,.000284,0.7690,83.2777,165.6787,110.1567,0,U,51280,999,1602,0,-.58E-6,0
GOES 18,2022-021A,2026-07-01T13:43:06.066336,1.00271770,.00005735,0.0072,256.6923,234.7791,216.9233,0,U,51850,999,673,0,.107E-5,0
ZHONGXING-6D,2022-038A,2026-06-30T21:03:57.080736,1.00272406,.0000424,0.0200,80.6644,112.0247,167.3049,0,U,52255,999,1556,0,-.343E-5,0
NILESAT 301,2022-061A,2026-07-01T03:43:47.906112,1.00273048,.00047055,0.0449,5.1245,58.0567,264.9967,0,U,52817,999,1487,0,-.47E-6,0
CMS-02 (GSAT-24),2022-067A,2026-07-01T11:00:06.964416,1.00270832,.00014037,0.0345,243.5107,139.2878,144.7469,0,U,52903,999,1475,0,-.154E-5,0
MEASAT 3D,2022-067B,2026-07-01T14:27:55.244736,1.00271394,.00006471,0.0355,324.2509,102.9699,160.9328,0,U,52904,999,1479,0,-.231E-5,0
SES-22,2022-071A,2026-07-01T13:44:06.528192,1.00272224,.00012923,0.0169,20.2382,73.6910,252.7098,0,U,52933,999,766,0,.115E-5,0
WFOV (USA 332),2022-073A,2026-07-01T12:53:05.239680,1.00275709,.00012576,3.7457,78.3528,240.0685,273.7188,0,U,52940,999,1451,0,-.354E-5,0
TIANLIAN 2-03,2022-078A,2026-07-01T14:04:47.876736,1.00272746,.00010104,0.7072,77.2924,344.3709,79.7302,0,U,53100,999,1469,0,.82E-6,0
SBIRS GEO-6 (USA 336),2022-092A,2026-07-01T14:30:22.521312,1.00271584,.00021923,3.2341,317.7135,139.4106,179.1353,0,U,53355,999,1437,0,-.279E-5,0
EUTELSAT KONNECT VHTS,2022-110A,2026-07-01T08:54:33.242112,1.00270298,.00030561,0.0614,98.4813,342.3407,334.9638,0,U,53765,999,697,0,.27E-6,0
ZHONGXING-1E,2022-112A,2026-07-01T12:41:57.384096,1.00271378,.00001557,0.0398,149.3936,92.7364,309.3585,0,U,53813,999,1399,0,-.139E-5,0
SES-20,2022-123A,2026-07-01T14:07:24.074976,1.00268740,.00021328,0.0172,56.4312,35.8731,296.0742,0,U,53960,999,1367,0,-.9E-6,0
SES-21,2022-123B,2026-07-01T13:48:29.343168,1.00268129,.00007638,0.0395,24.5442,76.5184,254.7601,0,U,53961,999,735,0,0,0
GALAXY 33 (G-33),2022-128A,2026-07-01T13:47:53.195136,1.00273072,.00020533,0.0132,26.1790,72.2770,255.1499,0,U,54026,999,1388,0,.89E-6,0
GALAXY 34 (G-34),2022-128B,2026-07-01T13:47:18.921984,1.00274932,.00019478,0.0273,25.0397,81.3014,251.1256,0,U,54027,999,1405,0,0,0
