TJS-7                   
1 49115U 21077A   26182.55699251 -.00000113  00000+0  00000+0 0  9992
2 49115   0.3198 264.5638 0003503 115.7365   0.3704  1.00271485  9692
CHINASAT 9B             
1 49125U 21080A   26182.60462942  .00000000  00000+0  00000+0 0  9992
2 49125   0.0184  37.4079 0002542  84.7441 116.5592  1.00265952 17790
SHIJIAN-21 (SJ-21)      
1 49330U 21094A   26182.77666122 -.00000341  00000+0  00000+0 0  9998
2 49330   5.1454  61.0953 0049727 168.0112  98.1403  1.00264215  5508
SES-17                  
1 49332U 21095A   26182.49992959 -.00000262  00000+0  00000+0 0  9992
2 49332   0.0218  36.4358 0001357  69.6185 286.3807  1.00274209 17999
SYRACUSE 4A             
1 49333U 21095B   26182.45087390  .00000000  00000+0  00000+0 0  9992
2 49333   0.0259  38.5237 0001464  56.0153  32.7926  1.00270065 18091
QZS-1R (MICHIBIKI-1R)   
1 49336U 21096A   26182.60904943 -.00000278  00000+0  00000+0 0  9993
2 49336  37.4893  79.3703 0756025 272.0403 280.4502  1.00251244 17157
ZHONGXING-1D            
1 49505U 21114A   26182.30461367 -.00000326  00000+0  00000+0 0  9991
2 49505   0.0467 124.1238 0000571  39.3045 355.7759  1.00270455 16967
STPSAT-6                
1 49817U 21118A   26182.56114809 -.00000035  00000+0  00000+0 0  9992
2 49817   0.3561  85.2771 0000936 270.2476  14.3901  1.00270758 16715
EXPRESS AMU-7           
1 50001U 21123A   26182.25679731 -.00000232  00000+0  00000+0 0  9990
2 50001   0.0274 282.7758 0000443 125.5414 108.4386  1.00272751 16689
EXPRESS AMU-3           
1 50002U 21123B   26180.94197627  .00000000  00000+0  00000+0 0  9996
2 50002   0.0197 341.0992 0001085   8.1661  10.7324  1.00278298  7168
TIANLIAN 2-02           
1 50005U 21124A   26181.53326093 -.00000004  00000+0  00000+0 0  9992
2 50005   0.8353  85.9352 0000803 182.4162  13.2038  1.00273312 16753
TURKSAT 5B              
1 50212U 21126A   26182.59290527  .00000157  00000+0  00000+0 0  9991
2 50212   0.0696 339.1112 0002599  21.8290 174.1433  1.00271302 16444
INMARSAT 6-F1           
1 50319U 21128A   26182.45858727 -.00000161  00000+0  00000+0 0  9994
2 50319   0.0141 318.0594 0000247 137.2501  73.0512  1.00270069 16402
SHIYAN-12 01 (SY-12 01) 
1 50321U 21129A   26182.77789315  .00000147  00000+0  00000+0 0  9992
2 50321   3.7100  79.7204 0002967 294.0464 234.1643  1.00045778 16648
SHIYAN-12 02 (SY-12 02) 
1 50322U 21129B   26182.74699877 -.00000323  00000+0  00000+0 0  9990
2 50322   3.7093  79.7238 0003120  58.9175 150.3000  1.00484923 16640
TJS-9                   
1 50574U 21135A   26182.29905606  .00000000  00000+0  00000+0 0  9997
2 50574   0.0168  48.1124 0003705  16.5354  99.6001  1.00269190 16579
USA 324                 
1 51280U 22006A   26157.08795008 -.00000058  00000+0  00000+0 0  9996
2 51280   0.7690  83.2777 0002840 165.6787 110.1567  1.00289779 16021
GOES 18                 
1 51850U 22021A   26182.57159799  .00000107  00000+0  00000+0 0  9993
2 51850   0.0072 256.6923 0000573 234.7791 216.9233  1.00271770  6738
ZHONGXING-6D            
1 52255U 22038A   26181.87774399 -.00000343  00000+0  00000+0 0  9995
2 52255   0.0200  80.6644 0000424 112.0247 167.3049  1.00272406 15567
NILESAT 301             
1 52817U 22061A   26182.15541558 -.00000047  00000+0  00000+0 0  9997
2 52817   0.0449   5.1245 0004705  58.0567 264.9967  1.00273048 14874
CMS-02 (GSAT-24)        
1 52903U 22067A   26182.45841394 -.00000154  00000+0  00000+0 0  9992
2 52903   0.0345 243.5107 0001403 139.2878 144.7469  1.00270832 14756
MEASAT 3D               
1 52904U 22067B   26182.60272274 -.00000231  00000+0  00000+0 0  9991
2 52904   0.0355 324.2509 0000647 102.9699 160.9328  1.00271394 14790
SES-22                  
1 52933U 22071A   26182.57229778  .00000115  00000+0  00000+0 0  9995
2 52933   0.0169  20.2382 0001292  73.6910 252.7098  1.00272224  7669
WFOV (USA 332)          
1 52940U 22073A   26182.53686620 -.00000354  00000+0  00000+0 0  9990
2 52940   3.7457  78.3528 0001257 240.0685 273.7188  1.00275709 14519
TIANLIAN 2-03           
1 53100U 22078A   26182.58666524  .00000082  00000+0  00000+0 0  9997
2 53100   0.7072  77.2924 0001010 344.3709  79.7302  1.00272746 14697
SBIRS GEO-6 (USA 336)   
1 53355U 22092A   26182.60442733 -.00000279  00000+0  00000+0 0  9991
2 53355   3.2341 317.7135 0002192 139.4106 179.1353  1.00271584 14373
EUTELSAT KONNECT VHTS   
1 53765U 22110A   26182.37121808  .00000027  00000+0  00000+0 0  9998
2 53765   0.0614  98.4813 0003056 342.3407 334.9638  1.00270298  6976
ZHONGXING-1E            
1 53813U 22112A   26182.52913639 -.00000139  00000+0  00000+0 0  9997
2 53813   0.0398 149.3936 0000155  92.7364 309.3585  1.00271378 13993
SES-20                  
1 53960U 22123A   26182.58847309 -.00000090  00000+0  00000+0 0  9994
2 53960   0.0172  56.4312 0002132  35.8731 296.0742  1.00268740 13676
SES-21                  
1 53961U 22123B   26182.57533962  .00000000  00000+0  00000+0 0  9991
2 53961   0.0395  24.5442 0000763  76.5184 254.7601  1.00268129  7350
GALAXY 33 (G-33)        
1 54026U 22128A   26182.57492124  .00000089  00000+0  00000+0 0  9990
2 54026   0.0132  26.1790 0002053  72.2770 255.1499  1.00273072 13882
GALAXY 34 (G-34)        
1 54027U 22128B   26182.57452456  .00000000  00000+0  00000+0 0  9998
2 54027   0.0273  25.0397 0001947  81.3014 251.1256  1.00274932 14056
